NORAD_CAT_ID,OBJECT_NAME,OBJECT_TYPE,EPOCH,MEAN_MOTION,ECCENTRICITY,INCLINATION,RA_OF_ASC_NODE,ARG_OF_PERICENTER,MEAN_ANOMALY,BSTAR,MEAN_MOTION_DOT,MEAN_MOTION_DDOT,TLE_LINE0,TLE_LINE1,TLE_LINE2,SEMIMAJOR_AXIS,PERIOD,APOGEE,PERIGEE,DECAYED
52848.0,STARLINK-4202,PAYLOAD,2024-04-27 14:02:28,15.08846317,0.0001555,53.2166,211.7174,70.9103,289.2058,9.6182e-05,1.243e-05,0.0,0 STARLINK-4202,1 52848U 22062U   24118.58505678  .00001243  00000-0  96182-4 0  9999,2 52848  53.2166 211.7174 0001555  70.9103 289.2058 15.08846317102966,6917.861,95.437,540.802,538.65,0.0
52848.0,STARLINK-4202,PAYLOAD,2024-04-28 12:17:54,15.08807292,0.000141,53.2158,207.554,96.2248,263.8905,-0.00053764,-8.827e-05,0.0,0 STARLINK-4202,1 52848U 22062U   24119.51243619 -.00008827  00000-0 -53764-3 0  9992,2 52848  53.2158 207.5540 0001410  96.2248 263.8905 15.08807292103596,6917.98,95.44,540.821,538.87,0.0
52848.0,STARLINK-4202,PAYLOAD,2024-04-29 05:47:08,15.08833402,0.0001303,53.2127,204.2854,75.9914,284.1223,0.00038062,5.774e-05,0.0,0 STARLINK-4202,1 52848U 22062U   24120.24107507  .00005774  00000-0  38062-3 0  9999,2 52848  53.2127 204.2854 0001303  75.9914 284.1223 15.08833402103703,6917.901,95.438,540.667,538.864,0.0
52848.0,STARLINK-4202,PAYLOAD,2024-04-29 12:08:40,15.08845803,0.000133,53.2154,203.0952,83.6494,276.465,0.00046365,7.1e-05,0.0,0 STARLINK-4202,1 52848U 22062U   24120.50602944  .00007100  00000-0  46365-3 0  9993,2 52848  53.2154 203.0952 0001330  83.6494 276.4650 15.08845803103748,6917.863,95.437,540.648,538.808,0.0
52848.0,STARLINK-4202,PAYLOAD,2024-04-30 05:37:55,15.08847757,0.0001165,53.2146,199.8237,88.9144,271.1981,0.00057415,8.863e-05,0.0,0 STARLINK-4202,1 52848U 22062U   24121.23466914  .00008863  00000-0  57415-3 0  9994,2 52848  53.2146 199.8237 0001165  88.9144 271.1981 15.08847757103854,6917.857,95.437,540.528,538.916,0.0
52848.0,STARLINK-4202,PAYLOAD,2024-04-30 11:59:27,15.08848268,0.0001178,53.2152,198.635,85.4399,274.6727,0.00029536,4.417e-05,0.0,0 STARLINK-4202,1 52848U 22062U   24121.49962756  .00004417  00000-0  29536-3 0  9991,2 52848  53.2152 198.6350 0001178  85.4399 274.6727 15.08848268103407,6917.855,95.437,540.535,538.905,0.0
52848.0,STARLINK-4202,PAYLOAD,2024-05-01 11:50:14,15.08851462,0.000123,53.216,194.174,86.5725,273.5407,1.2103e-05,-9.5e-07,0.0,0 STARLINK-4202,1 52848U 22062U   24122.49321844 -.00000095  00000-0  12103-4 0  9991,2 52848  53.2160 194.1740 0001230  86.5725 273.5407 15.08851462104048,6917.845,95.437,540.561,538.859,0.0
52848.0,STARLINK-4202,PAYLOAD,2024-05-01 21:22:32,15.08857532,0.0001286,53.2165,192.3893,86.4662,273.6477,0.00011043,1.471e-05,0.0,0 STARLINK-4202,1 52848U 22062U   24122.89065166  .00001471  00000-0  11043-3 0  9996,2 52848  53.2165 192.3893 0001286  86.4662 273.6477 15.08857532103616,6917.827,95.436,540.581,538.802,0.0
52848.0,STARLINK-4202,PAYLOAD,2024-05-02 11:41:02,15.08833932,0.0001357,53.2171,189.7151,97.8285,262.2861,1.0437e-07,-2.86e-06,0.0,0 STARLINK-4202,1 52848U 22062U   24123.48682977 -.00000286  00000-0  10437-6 0  9990,2 52848  53.2171 189.7151 0001357  97.8285 262.2861 15.08833932104199,6917.899,95.438,540.703,538.825,0.0
52848.0,STARLINK-4202,PAYLOAD,2024-05-02 21:13:20,15.08841621,0.0001397,53.2175,187.931,95.9652,264.1499,5.6965e-05,6.19e-06,0.0,0 STARLINK-4202,1 52848U 22062U   24123.88426357  .00000619  00000-0  56965-4 0  9995,2 52848  53.2175 187.9310 0001397  95.9652 264.1499 15.08841621104250,6917.875,95.437,540.707,538.774,0.0
52848.0,STARLINK-4202,PAYLOAD,2024-05-03 13:07:10,15.08853277,0.0001577,53.2161,184.9574,95.708,264.4092,0.0003355,5.057e-05,0.0,0 STARLINK-4202,1 52848U 22062U   24124.54665448  .00005057  00000-0  33550-3 0  9990,2 52848  53.2161 184.9574 0001577  95.7080 264.4092 15.08853277104350,6917.84,95.437,540.796,538.614,0.0
52848.0,STARLINK-4202,PAYLOAD,2024-05-03 21:04:06,15.08859552,0.0001444,53.2152,183.469,72.7829,287.3321,0.00038597,5.863e-05,0.0,0 STARLINK-4202,1 52848U 22062U   24124.87784991  .00005863  00000-0  38597-3 0  9992,2 52848  53.2152 183.4690 0001444  72.7829 287.3321 15.08859552103914,6917.821,95.436,540.685,538.687,0.0
52848.0,STARLINK-4202,PAYLOAD,2024-05-04 09:47:12,15.08826418,0.0001456,53.2155,181.0909,81.6102,278.5055,-0.00024378,-4.164e-05,0.0,0 STARLINK-4202,1 52848U 22062U   24125.40778379 -.00004164  00000-0 -24378-3 0  9992,2 52848  53.2155 181.0909 0001456  81.6102 278.5055 15.08826418104484,6917.922,95.438,540.794,538.78,0.0
52848.0,STARLINK-4202,PAYLOAD,2024-05-05 08:02:37,15.08834511,0.0001542,53.2158,176.9276,78.128,281.9885,0.00052113,8.014e-05,0.0,0 STARLINK-4202,1 52848U 22062U   24126.33515128  .00008014  00000-0  52113-3 0  9990,2 52848  53.2158 176.9276 0001542  78.1280 281.9885 15.08834511104629,6917.897,95.438,540.829,538.695,0.0
52848.0,STARLINK-4202,PAYLOAD,2024-05-05 20:45:42,15.08846884,0.0001533,53.2153,174.5488,75.2736,284.8426,0.0008532,0.00013319,0.0,0 STARLINK-4202,1 52848U 22062U   24126.86507273  .00013319  00000-0  85320-3 0  9990,2 52848  53.2153 174.5488 0001533  75.2736 284.8426 15.08846884104211,6917.859,95.437,540.785,538.664,0.0
52848.0,STARLINK-4202,PAYLOAD,2024-05-06 09:28:46,15.08864869,0.0001451,53.2151,172.169,79.2964,280.8192,0.0010986,0.00017251,0.0,0 STARLINK-4202,1 52848U 22062U   24127.39498666  .00017251  00000-0  10986-2 0  9998,2 52848  53.2151 172.1690 0001451  79.2964 280.8192 15.08864869104785,6917.804,95.436,540.673,538.666,0.0
52848.0,STARLINK-4202,PAYLOAD,2024-05-07 02:58:00,15.08861512,0.0001862,53.2159,168.9003,83.9278,276.1926,0.00052142,8.025e-05,0.0,0 STARLINK-4202,1 52848U 22062U   24128.12362139  .00008025  00000-0  52142-3 0  9995,2 52848  53.2159 168.9003 0001862  83.9278 276.1926 15.08861512104897,6917.815,95.436,540.968,538.392,0.0
52848.0,STARLINK-4202,PAYLOAD,2024-05-07 12:30:19,15.08842754,0.0001433,53.2149,167.1128,80.7115,279.4039,1.8141e-05,1e-08,0.0,0 STARLINK-4202,1 52848U 22062U   24128.52106460  .00000001  00000-0  18141-4 0  9990,2 52848  53.2149 167.1128 0001433  80.7115 279.4039 15.08842754104959,6917.872,95.437,540.728,538.746,0.0
52848.0,STARLINK-4202,PAYLOAD,2024-05-08 09:10:20,15.08840453,0.0001387,53.216,163.2471,82.7191,277.3959,4.1631e-05,3.75e-06,0.0,0 STARLINK-4202,1 52848U 22062U   24129.38218562  .00000375  00000-0  41631-4 0  9996,2 52848  53.2160 163.2471 0001387  82.7191 277.3959 15.08840453104596,6917.879,95.438,540.704,538.784,0.0
52848.0,STARLINK-4202,PAYLOAD,2024-05-08 18:42:38,15.08853517,0.0001298,53.2163,161.4633,105.1329,254.9807,-9.3605e-06,-4.37e-06,0.0,0 STARLINK-4202,1 52848U 22062U   24129.77961472 -.00000437  00000-0 -93605-5 0  9994,2 52848  53.2163 161.4633 0001298 105.1329 254.9807 15.08853517105143,6917.839,95.437,540.602,538.806,0.0
52848.0,STARLINK-4202,PAYLOAD,2024-05-09 02:39:34,15.08841191,0.0002052,53.2157,159.9763,85.5482,274.5745,0.00012035,1.628e-05,0.0,0 STARLINK-4202,1 52848U 22062U   24130.11082084  .00001628  00000-0  12035-3 0  9994,2 52848  53.2157 159.9763 0002052  85.5482 274.5745 15.08841191105191,6917.877,95.437,541.161,538.322,0.0
52848.0,STARLINK-4202,PAYLOAD,2024-05-09 09:01:08,15.08830547,0.0001445,53.2176,158.7904,90.8559,269.2599,4.5747e-05,4.4e-06,0.0,0 STARLINK-4202,1 52848U 22062U   24130.37579058  .00000440  00000-0  45747-4 0  9992,2 52848  53.2176 158.7904 0001445  90.8559 269.2599 15.08830547105231,6917.909,95.438,540.774,538.775,0.0
52848.0,STARLINK-4202,PAYLOAD,2024-05-10 12:02:41,15.08836229,0.0001425,53.2162,153.733,89.9523,270.1632,7.8848e-05,9.67e-06,0.0,0 STARLINK-4202,1 52848U 22062U   24131.50187171  .00000967  00000-0  78848-4 0  9991,2 52848  53.2162 153.7330 0001425  89.9523 270.1632 15.08836229105403,6917.892,95.438,540.743,538.771,0.0
52848.0,STARLINK-4202,PAYLOAD,2024-05-10 18:24:13,15.08842143,0.0001443,53.2166,152.5438,90.3893,269.7265,7.8413e-05,9.6e-06,0.0,0 STARLINK-4202,1 52848U 22062U   24131.76682850  .00000960  00000-0  78413-4 0  9994,2 52848  53.2166 152.5438 0001443  90.3893 269.7265 15.08842143104956,6917.874,95.437,540.737,538.741,0.0
52848.0,STARLINK-4202,PAYLOAD,2024-05-11 10:18:04,15.08874694,0.0001441,53.2152,149.5696,90.7245,269.3913,0.00070901,0.00011025,0.0,0 STARLINK-4202,1 52848U 22062U   24132.42921725  .00011025  00000-0  70901-3 0  9992,2 52848  53.2152 149.5696 0001441  90.7245 269.3913 15.08874694105544,6917.774,95.435,540.636,538.642,0.0
52848.0,STARLINK-4202,PAYLOAD,2024-05-11 18:14:58,15.08879642,0.0001802,53.2148,148.0823,66.246,293.8721,0.00063887,9.905e-05,0.0,0 STARLINK-4202,1 52848U 22062U   24132.76040486  .00009905  00000-0  63887-3 0  9994,2 52848  53.2148 148.0823 0001802  66.2460 293.8721 15.08879642105102,6917.759,95.435,540.871,538.378,0.0
52848.0,STARLINK-4202,PAYLOAD,2024-05-12 05:22:43,15.08805475,0.0001419,53.2145,146.0006,80.1624,279.9528,-0.00083882,-0.000136,0.0,0 STARLINK-4202,1 52848U 22062U   24133.22411352 -.00013600  00000-0 -83882-3 0  9996,2 52848  53.2145 146.0006 0001419  80.1624 279.9528 15.08805475105665,6917.986,95.44,540.833,538.869,0.0
52848.0,STARLINK-4202,PAYLOAD,2024-05-12 08:33:29,15.08803964,0.0001571,53.2145,145.4068,72.2173,287.8991,-0.00095854,-0.00015496,0.0,0 STARLINK-4202,1 52848U 22062U   24133.35659473 -.00015496  00000-0 -95854-3 0  9995,2 52848  53.2145 145.4068 0001571  72.2173 287.8991 15.08803964105197,6917.991,95.44,540.942,538.769,0.0
52848.0,STARLINK-4202,PAYLOAD,2024-05-12 18:05:49,15.08792112,0.0001636,53.2145,143.6224,68.9834,291.1333,7.4278e-05,8.93e-06,0.0,0 STARLINK-4202,1 52848U 22062U   24133.75404818  .00000893  00000-0  74278-4 0  9991,2 52848  53.2145 143.6224 0001636  68.9834 291.1333 15.08792112105256,6918.027,95.441,541.024,538.76,0.0
52848.0,STARLINK-4202,PAYLOAD,2024-05-13 05:13:32,15.08832532,0.0001868,53.2151,141.5397,65.4198,294.6989,0.001642,0.00025936,0.0,0 STARLINK-4202,1 52848U 22062U   24134.21773324  .00025936  00000-0  16420-2 0  9992,2 52848  53.2151 141.5397 0001868  65.4198 294.6989 15.08832532105811,6917.903,95.438,541.06,538.476,0.0
